{
    "links": {
        "self": "http://www.neowsapp.com/rest/v1/neo/3624752?api_key=iIulBulltgU6a56xZRHN4H3l9WmuAYTsLGpBGhQ2"
    },
    "id": "3624752",
    "neo_reference_id": "3624752",
    "name": "(2013 BO18)",
    "designation": "2013 BO18",
    "nasa_jpl_url": "http://ssd.jpl.nasa.gov/sbdb.cgi?sstr=3624752",
    "absolute_magnitude_h": 23.4,
    "estimated_diameter": {
        "kilometers": {
            "estimated_diameter_min": 0.0555334912,
            "estimated_diameter_max": 0.1241766613
        },
        "meters": {
            "estimated_diameter_min": 55.5334911581,
            "estimated_diameter_max": 124.1766612574
        },
        "miles": {
            "estimated_diameter_min": 0.0345069009,
            "estimated_diameter_max": 0.0771597762
        },
        "feet": {
            "estimated_diameter_min": 182.1964991311,
            "estimated_diameter_max": 407.4037573197
        }
    },
    "is_potentially_hazardous_asteroid": false,
    "close_approach_data": [
        {
            "close_approach_date": "2013-02-09",
            "close_approach_date_full": "2013-Feb-09 10:02",
            "epoch_date_close_approach": 1360404120000,
            "relative_velocity": {
                "kilometers_per_second": "5.0321233307",
                "kilometers_per_hour": "18115.643990591",
                "miles_per_hour": "11256.3566784869"
            },
            "miss_distance": {
                "astronomical": "0.2426132121",
                "lunar": "94.3765395069",
                "kilometers": "36294419.764018227",
                "miles": "22552306.6770044526"
            },
            "orbiting_body": "Earth"
        }
    ],
    "orbital_data": {
        "orbit_id": "5",
        "orbit_determination_date": "2019-07-16 06:15:04",
        "first_observation_date": "2013-01-17",
        "last_observation_date": "2013-01-21",
        "data_arc_in_days": 4,
        "observations_used": 8,
        "orbit_uncertainty": "9",
        "minimum_orbit_intersection": ".240957",
        "jupiter_tisserand_invariant": "3.287",
        "epoch_osculation": "2456311.5",
        "eccentricity": ".5097566029772991",
        "semi_major_axis": "2.456554290628522",
        "inclination": "8.559704724508871",
        "ascending_node_longitude": "284.4993388492237",
        "orbital_period": "1406.332381760781",
        "perihelion_distance": "1.204309520408418",
        "perihelion_argument": "223.4410030604529",
        "aphelion_distance": "3.708799060848627",
        "perihelion_time": "2456342.276780723427",
        "mean_anomaly": "352.1216056715116",
        "mean_motion": ".2559850037366462",
        "equinox": "J2000",
        "orbit_class": {
            "orbit_class_type": "AMO",
            "orbit_class_description": "Near-Earth asteroid orbits similar to that of 1221 Amor",
            "orbit_class_range": "1.017 AU < q (perihelion) < 1.3 AU"
        }
    },
    "is_sentry_object": false
}